[{"OBJECT_NAME":"STARLINK-5747","OBJECT_ID":"2023-020F","EPOCH":"2026-03-09T04:45:28.037952","MEAN_MOTION":15.02535141,"ECCENTRICITY":0.00013341,"INCLINATION":43.0059,"RA_OF_ASC_NODE":7.4555,"ARG_OF_PERICENTER":267.4979,"MEAN_ANOMALY":92.5711,"EPHEMERIS_TYPE":0,"CLASSIFICATION_TYPE":"U","NORAD_CAT_ID":55574,"ELEMENT_SET_NO":999,"REV_AT_EPOCH":16884,"BSTAR":-2.6674672e-5,"MEAN_MOTION_DOT":-5.64e-6,"MEAN_MOTION_DDOT":0},{"OBJECT_NAME":"UNKNOWN","OBJECT_ID":"","EPOCH":"2026-03-07T16:41:41.743392","MEAN_MOTION":15.0507428,"ECCENTRICITY":0.0006664,"INCLINATION":85.8737,"RA_OF_ASC_NODE":153.9139,"ARG_OF_PERICENTER":326.6675,"MEAN_ANOMALY":33.4139,"EPHEMERIS_TYPE":0,"CLASSIFICATION_TYPE":"U","NORAD_CAT_ID":82448,"ELEMENT_SET_NO":999,"REV_AT_EPOCH":44981,"BSTAR":0.00062595,"MEAN_MOTION_DOT":8.933e-5,"MEAN_MOTION_DDOT":0}]
